{
  "norad_id": 63754,
  "name": "STARLINK-11662 [DTC]",
  "history": [
    {
      "epoch": "2026-03-28T06:01:02.504352",
      "apogee_km": 357.89589140314365,
      "perigee_km": 354.4250344907414,
      "latitude_deg": -38.93367686565031,
      "longitude_deg": -140.5305507199373,
      "semi_major_axis_km": 6734.297462946943,
      "eccentricity": 0.0002577,
      "inclination_deg": 43.0023,
      "raan_deg": 180.4562,
      "arg_perigee_deg": 263.8395,
      "mean_anomaly_deg": 96.2179,
      "mean_motion_rev_day": 15.70957074
    },
    {
      "epoch": "2026-03-29T04:54:25.954848",
      "apogee_km": 358.3108431671699,
      "perigee_km": 353.3371395789418,
      "latitude_deg": 43.00203632329884,
      "longitude_deg": -48.97116128006019,
      "semi_major_axis_km": 6733.960991373056,
      "eccentricity": 0.0003693,
      "inclination_deg": 43.004,
      "raan_deg": 174.7067,
      "arg_perigee_deg": 298.9149,
      "mean_anomaly_deg": 61.1348,
      "mean_motion_rev_day": 15.71074818
    }
  ]
}